
STARLINK-11399 [DTC]    
1 63063U 25035M   25061.48531775 -.00177506  19166-4 -40520-3 0  9996
2 63063  43.0012 103.2841 0002666 303.1546  56.9075 15.96198597  2634
STARLINK-11408 [DTC]    
1 63064U 25035N   25061.10920134  .00073714  10610-4  17116-3 0  9991
2 63064  43.0013 105.6285 0003680 290.9666  69.0817 15.96802423  2579
STARLINK-33635          
1 63065U 25035P   25061.47877383  .00066888  10264-4  14922-3 0  9990
2 63065  43.0007 103.2276 0009069 311.9832  48.0272 15.97519740  2641
STARLINK-33622          
1 63066U 25035Q   25061.47844553 -.00081032  10634-4 -18040-3 0  9990
2 63066  43.0008 103.2252 0003103 307.0948  52.9645 15.96316141  2641
STARLINK-33628          
1 63067U 25035R   25061.47798298  .00078919  10959-4  17481-3 0  9991
2 63067  43.0014 103.2182 0002858 265.7873  94.2678 15.97616187  2643
STARLINK-33627          
1 63068U 25035S   25060.60165124 -.00038536  89422-5 -75453-4 0  9991
2 63068  43.0013 108.7008 0002424 309.5844  50.4819 15.97939310  2494
STARLINK-33620          
1 63069U 25035T   25061.28706861  .01611736  15871-2  24851-2 0  9992
2 63069  43.0009 104.3707 0030067 252.2275 107.5322 16.02782377  2606
STARLINK-33604          
1 63070U 25035U   25061.10236573 -.00170771  18515-4 -36622-3 0  9993
2 63070  43.0006 105.5693 0005181 267.7530  92.2755 15.97298758  2570
STARLINK-33624          
1 63071U 25035V   25061.47607242  .00059765  99338-5  12906-3 0  9998
2 63071  43.0016 103.2055 0009265 296.8482  63.1448 15.98178946  2534
STARLINK-33623          
1 63072U 25035W   25061.47519668  .00165786  19512-4  33017-3 0  9995
2 63072  43.0005 103.1984 0013050 280.4355  79.5052 15.99034230  2640
STARLINK-33586          
1 63073U 25035X   25061.16205796  .00096351  12244-4  19213-3 0  9994
2 63073  43.0003 105.1540 0013902 274.8842  85.0449 15.99186543  2594
STARLINK-33605          
1 63074U 25035Y   25060.59951135 -.00005761  84833-5 -62370-5 0  9991
2 63074  43.0005 108.6838 0006416 332.5176  27.5362 15.98581779  2492
STARLINK-32839          
1 63077U 25037A   25061.23727136 -.00326343  40534-4 -79098-3 0  9994
2 63077  69.9956 232.8237 0002838 241.6484 118.4439 15.96007807  2281
STARLINK-32821          
1 63078U 25037B   25061.42344542  .00066411  58006-5  13002-3 0  9994
2 63078  69.9957 232.2685 0016682 255.5955 104.3405 15.99974405  2190
STARLINK-32817          
1 63079U 25037C   25061.42381502  .00079537  65187-5  16746-3 0  9991
2 63079  69.9957 232.2689 0009780 231.4599 128.5736 15.98821422  2265
STARLINK-32906          
1 63080U 25037D   25061.42406975  .00087603  69751-5  20215-3 0  9995
2 63080  69.9957 232.2697 0004631 282.0255  78.0436 15.97218367  2372
STARLINK-32895          
1 63081U 25037E   25061.42408206  .00590465  15506-3  12566-2 0  9996
2 63081  69.9950 232.2695 0008442 239.8525 120.1849 15.98452077  2217
STARLINK-32933          
1 63082U 25037F   25061.42280219  .00299759  41166-4  59514-3 0  9998
2 63082  69.9954 232.2651 0012879 249.1620 110.8212 15.99595155  2310
STARLINK-32932          
1 63083U 25037G   25061.36119891 -.00048347  47983-5 -10619-3 0  9993
2 63083  69.9960 232.4521 0005610 289.0968  70.9634 15.97366905  2152
STARLINK-32908          
1 63084U 25037H   25061.35938555  .00135239  11352-4  27353-3 0  9997
2 63084  69.9954 232.4449 0011150 276.9218  83.0724 15.99391800  2041
STARLINK-32505          
1 63085U 25037J   25060.85964573  .00132055  10907-4  28375-3 0  9994
2 63085  69.9952 233.9165 0005080 289.6672  70.3989 15.98417362  2224
STARLINK-32914          
1 63086U 25037K   25061.04671128  .00153651  13447-4  31936-3 0  9992
2 63086  69.9951 233.3641 0007034 293.2088  66.8381 15.98964386  2319
STARLINK-32918          
1 63087U 25037L   25060.85893015 -.00115385  88222-5 -24075-3 0  9996
2 63087  69.9949 233.9149 0005026 276.0968  83.9670 15.98576472  2272
STARLINK-32912          
1 63088U 25037M   25061.42108437  .00132377  11181-4  24723-3 0  9995
2 63088  69.9959 232.2583 0013958 234.3859 125.6053 16.00718215  2374
STARLINK-32910          
1 63089U 25037N   25061.04640714  .00020302  41641-5  45801-4 0  9993
2 63089  69.9950 233.3627 0003889 289.8034  70.2756 15.98462897  2316
STARLINK-32903          
1 63090U 25037P   25061.42053320  .00084700  69210-5  16421-3 0  9997
2 63090  69.9961 232.2564 0010733 205.8183 154.2494 16.00240545  2003
STARLINK-32925          
1 63091U 25037Q   25061.48275467  .00119214  98319-5  22121-3 0  9997
2 63091  69.9958 232.0713 0014970 262.3500  97.6011 16.00818117  2328
STARLINK-32924          
1 63092U 25037R   25061.48311660  .00155484  13601-4  33352-3 0  9991
2 63092  69.9956 232.0737 0004333 271.5633  88.5081 15.98430250  2380
STARLINK-32900          
1 63093U 25037S   25061.41941937  .00111661  91212-5  20652-3 0  9994
2 63093  69.9966 232.2524 0015212 259.8139 100.1357 16.00879184  2166
STARLINK-32927          
1 63094U 25037T   25060.60714607 -.00020188  41337-5 -38024-4 0  9998
2 63094  69.9948 234.6435 0005548 273.6272  86.4304 15.99435772  2196
STARLINK-32907          
1 63095U 25037U   25061.48227308 -.00139122  11024-4 -28852-3 0  9998
2 63095  69.9951 232.0697 0004326 262.0575  98.0144 15.98725784  2335
STARLINK-32911          
1 63096U 25037V   25061.04431109 -.00014353  40588-5 -26712-4 0  9997
2 63096  69.9955 233.3541 0004102 280.5391  79.5357 15.99175755  2311
STARLINK-32923          
1 63097U 25037W   25061.04403333 -.00056957  51710-5 -11265-3 0  9997
2 63097  69.9949 233.3530 0004919 276.8359  83.2292 15.99325217  2311
STARLINK-32913          
1 63098U 25037X   25060.60627305  .00753038  26898-3  14030-2 0  9997
2 63098  69.9947 234.6391 0007079 271.8052  88.2348 16.00843589  2186
IM-2                    
1 63099U 25038A   25058.03746186 -.00007054  00000+0  00000+0 0  9995
2 63099  28.5200 357.2438 9653600 216.4100   0.0142  0.10463308    03
CHIMERA-1               
1 63100U 25038B   25058.03746186 -.00007054  00000+0  00000+0 0  9998
2 63100  28.5200 357.2438 9653600 216.4100   0.0142  0.10463308    06
LUNAR TRAILBLAZER       
1 63101U 25038C   25058.03746186 -.00007054  00000+0  00000+0 0  9999
2 63101  28.5200 357.2438 9653600 216.4100   0.0142  0.10463308    07
BROKKER-2 ODIN          
1 63102U 25038D   25058.03746186 -.00007054  00000+0  00000+0 0  9990
2 63102  28.5200 357.2438 9653600 216.4100   0.0142  0.10463308    08
SUPERVIEW NEO-1 03      
1 63125U 25040A   25058.55955226 -.00000069  00000+0  00000+0 0  9991
2 63125  97.3096 180.1499 0011857 243.1391 232.7453 15.22809509    07
SUPERVIEW NEO-1 04      
1 63126U 25040B   25061.49547568  .00022677  00000+0  96796-3 0  9994
2 63126  97.3127 182.9970 0011803 229.3156 130.7056 15.22841571   464
PROGRESS-MS 30          
1 63129U 25041B   25059.21943958  .06183000  00000+0  20000-1 0  9995
2 63129  51.6325 127.2032 0006238 312.1465 188.9081 15.86266294    29
BEIJING 1               
1 28890U 05043A   25061.46981873  .00000923  00000+0  18939-3 0  9995
2 28890  98.2256 189.0354 0013934 321.6551  38.3659 14.62995151 31645
HUANJING 1A (HJ-1A)     
1 33320U 08041A   25061.52184085  .00002807  00000+0  35808-3 0  9994
2 33320  97.6393  62.2382 0018047 244.0225 115.9130 14.82124188888599
HUANJING 1B (HJ-1B)     
1 33321U 08041B   25061.52566495  .00002368  00000+0  30288-3 0  9993
2 33321  97.6296  66.5554 0035795 291.6442  68.0961 14.81825582888616
YAOGAN-4                
1 33446U 08061A   25061.37081262  .00002747  00000+0  35585-3 0  9996
2 33446  97.8991 354.9306 0015140 161.1543 199.0233 14.81567459875767
DEIMOS-1                
1 35681U 09041A   25061.45776186  .00001627  00000+0  25274-3 0  9993
2 35681  97.6906 235.8965 0000120 355.8633   4.2575 14.74332770837353
UK-DMC 2                
1 35683U 09041C   25061.42733914  .00002203  00000+0  33660-3 0  9993
2 35683  97.8133 205.2779 0001207  81.1383 278.9963 14.74756359837052
DMC3-FM1                
1 40715U 15032A   25061.56991835  .00001648  00000+0  20023-3 0  9996
2 40715  97.7148 298.5441 0006091 151.8624 208.2921 14.84800189519902
DMC3-FM2                
1 40716U 15032B   25061.52476942  .00001673  00000+0  20307-3 0  9993
2 40716  97.7200 299.7463 0007810 159.8920 200.2605 14.84816277519890
DMC3-FM3                
1 40717U 15032C   25061.56581279  .00001644  00000+0  20020-3 0  9998
2 40717  97.7256 301.1870 0009243 158.5711 201.5893 14.84702899519907
NOAA 15                 
1 25338U 98030A   25061.45168149  .00000389  00000+0  17780-3 0  9998
2 25338  98.5468  88.9200 0009151 291.2838  68.7366 14.26898309394269
DMSP 5D-3 F16 (USA 172) 
1 28054U 03048A   25061.47870781  .00000342  00000+0  20262-3 0  9993
2 28054  99.0197  76.3911 0008010  48.9627  72.8773 14.14294695102785
NOAA 18                 
1 28654U 05018A   25061.45647078  .00000394  00000+0  23243-3 0  9996
2 28654  98.8485 142.0330 0014831  54.2422 306.0128 14.13530649 19745
METEOSAT-9 (MSG-2)      
1 28912U 05049B   25060.09905686  .00000126  00000+0  00000+0 0  9993
2 28912   8.2789  58.6241 0000689 350.6164 191.2248  1.00274021  2266
EWS-G1 (GOES 13)        
1 29155U 06018A   25060.83654729  .00000016  00000+0  00000+0 0  9999
2 29155   3.2993  82.1947 0065949 261.4055 158.2187  0.98829275 38583
DMSP 5D-3 F17 (USA 191) 
1 29522U 06050A   25061.49164888  .00000410  00000+0  23533-3 0  9996
2 29522  98.7431  72.7393 0009374 328.7909  31.2707 14.14767136945712
FENGYUN 3A              
1 32958U 08026A   25061.41528594  .00000341  00000+0  18270-3 0  9993
2 32958  98.6374   7.5332 0009650  52.0746 308.1301 14.19379587868585
NOAA 19                 
1 33591U 09005A   25061.51749461  .00000342  00000+0  20634-3 0  9992
2 33591  99.0101 125.6205 0012772 283.9842  75.9910 14.13298649828117
